satname,norad_id,inclination_deg,eccentricity,mean_motion_rev_per_day,perigee_km,apogee_km,l1,l2
STARLINK-1008,44714,53.0543,0.0001248,15.06408052,546.3225994077002,548.0511602481056,1 44714U 19074B   25300.74574123  .00002535  00000+0  18899-3 0  9996,2 44714  53.0543  63.4236 0001248  85.8238 274.2894 15.06408052328713
STARLINK-1010,44716,53.0435,0.0005203,15.96432104,280.8604804558745,287.7934404531243,1 44716U 19074D   25300.83334491  .00304297  48144-4  71362-3 0  9990,2 44716  53.0435 350.8298 0005203  49.7068 115.0440 15.96432104  6009
STARLINK-1011,44717,53.0474,0.0003659,15.8368401,317.5819498361898,322.48367050327306,1 44717U 19074E   25300.83334491  .00271028  00000+0  11698-2 0  9995,2 44717  53.0474  47.6010 0003659 293.6067  42.9014 15.83684010  5867
STARLINK-1012,44718,53.0548,0.0001154,15.06411146,546.3782159827833,547.976578545673,1 44718U 19074F   25300.72362003  .00001499  00000+0  11949-3 0  9997,2 44718  53.0548  63.5251 0001154  88.4935 271.6186 15.06411146328701
STARLINK-1017,44723,53.0506,0.0001849,15.14576946,520.98733073114,523.5390987305482,1 44723U 19074L   25300.71902838  .00047346  00000+0  25357-2 0  9996,2 44723  53.0506  60.3628 0001849 193.1272 166.9673 15.14576946328754
STARLINK-1019,44724,53.0537,0.0001386,15.10521741,533.6496429194813,535.565855763999,1 44724U 19074M   25300.83334491  .00766114  00000+0  43025-1 0  9996,2 44724  53.0537  63.0094 0001386  90.3585 179.4531 15.10521741  5727
STARLINK-1020,44725,53.0536,0.0001465,15.06402076,546.1906326729704,548.2197579361955,1 44725U 19074N   25300.12833520  .00000990  00000+0  85358-4 0  9997,2 44725  53.0536  86.1990 0001465  86.5639 273.5517 15.06402076328332
STARLINK-1031,44736,53.0504,0.0005132,15.46724127,422.8247269779413,429.8088183301934,1 44736U 19074Z   25300.83334491  .00129015  00000+0  25041-2 0  9991,2 44736  53.0504  53.4072 0005132 220.8756  25.8778 15.46724127  5871
STARLINK-1036,44741,53.054,0.0001414,15.06404192,546.2194676224235,548.1779525612374,1 44741U 19074AE  25300.82130786  .00001698  00000+0  13282-3 0  9998,2 44741  53.0540  83.0864 0001414  85.4664 274.6486 15.06404192328441
STARLINK-1039,44744,53.0496,0.0006524,15.12420311,524.315305275486,533.3275046022509,1 44744U 19074AH  25300.83695350  .00040423  00000+0  23034-2 0  9999,2 44744  53.0496 101.1419 0006524 136.8691 223.2813 15.12420311328194
STARLINK-1042,44747,53.0482,0.0003291,15.42898901,435.31569518846663,439.8017861249673,1 44747U 19074AL  25300.57528426  .00019168  00000+0  43784-3 0  9999,2 44747  53.0482  10.0884 0003291  87.2724 272.8657 15.42898901329475
STARLINK-1043,44748,53.0542,0.0001262,15.06402736,546.3291945752544,548.0771504347949,1 44748U 19074AM  25300.86000890  .00000415  00000+0  46743-4 0  9996,2 44748  53.0542 102.9118 0001262  97.1738 262.9395 15.06402736328177
STARLINK-1046,44751,53.0537,0.0001303,15.06396882,546.3187400134093,548.123488337963,1 44751U 19074AQ  25299.74686459  .00000136  00000+0  28035-4 0  9999,2 44751  53.0537 107.9103 0001303  88.7056 271.4082 15.06396882328003
STARLINK-1047,44752,53.0719,0.000385,15.29122778,475.793568619456,481.07312778757296,1 44752U 19074AR  25300.70719487  .00013521  00000+0  48340-3 0  9999,2 44752  53.0719  45.6351 0003850 149.3536 210.7688 15.29122778328975
STARLINK-1048,44753,53.0552,0.0001237,15.06416124,546.3054811376496,548.0188001450442,1 44753U 19074AS  25300.76785154  .00002367  00000+0  17767-3 0  9995,2 44753  53.0552  63.3261 0001237  90.1724 269.9407 15.06416124328710
STARLINK-1053,44758,53.042,0.0002543,15.59876626,386.2931913842949,389.73445569314663,1 44758U 19074AX  25300.63386399  .00054961  00000+0  67245-3 0  9997,2 44758  53.0420  23.7243 0002543  18.3819 341.7285 15.59876626329277
STARLINK-1054,44759,53.0368,0.0005166,15.88826749,302.11837145258414,309.02397873909376,1 44759U 19074AY  25300.83334491  .00453170  00000+0  14902-2 0  9992,2 44759  53.0368  47.4555 0005166 315.2164  77.3196 15.88826749  6014
STARLINK-1056,44761,53.0376,0.0003812,16.02664448,264.51021400206355,269.57649950605264,1 44761U 19074BA  25300.81478492  .00519358  13354-3  85136-3 0  9992,2 44761  53.0376  33.6109 0003812   9.8279 350.2825 16.02664448329144
STARLINK-1060,44765,53.0532,0.0002537,15.61567169,381.41427985702194,384.8449465365584,1 44765U 19074BE  25300.83334491  .00126787  00000+0  14334-2 0  9999,2 44765  53.0532  68.9776 0002537 348.3059 232.7943 15.61567169  5538
STARLINK-1063,44768,53.054,0.0001293,15.06408611,546.2897224330654,548.0806107453454,1 44768U 19074BH  25300.86369700  .00000992  00000+0  85476-4 0  9992,2 44768  53.0540 102.8974 0001293  91.8449 268.2689 15.06408611328184
STARLINK-1067,44771,53.0551,0.0001492,15.06406442,546.1585551473772,548.2250732655366,1 44771U 19074BL  25300.85263554 -.00000042  00000+0  16085-4 0  9992,2 44771  53.0551 102.9466 0001492  89.7549 270.3611 15.06406442328173
STARLINK-1068,44772,53.0532,0.0001237,15.06397357,546.3629917458202,548.0763249830989,1 44772U 19074BM  25300.77708890  .00000988  00000+0  85209-4 0  9993,2 44772  53.0532  83.2844 0001237  85.4124 274.7006 15.06397357328432
STARLINK-1112,44925,53.0493,0.0004839,15.54464223,400.42877829053214,406.9922503148746,1 44925U 20001M   25300.86070323  .00111609  00000+0  16508-2 0  9995,2 44925  53.0493 181.9261 0004839 134.9709 225.1694 15.54464223320409
STARLINK-1114,44927,53.0537,7.49e-05,15.06389697,546.724424357215,547.7618463014878,1 44927U 20001P   25300.74942376 -.00005431  00000+0 -34612-3 0  9994,2 44927  53.0537 223.4119 0000749  96.5724 263.5350 15.06389697319816
STARLINK-1123,44930,53.0541,0.0001522,15.06383071,546.2093974234831,548.317489318446,1 44930U 20001S   25300.49879709  .00009533  00000+0  65828-3 0  9997,2 44930  53.0541 224.5372 0001522  97.4070 262.7092 15.06383071319771
STARLINK-1144,44933,53.043,0.0012399,15.59262104,381.3998942784492,398.1830032456901,1 44933U 20001V   25300.83334491  .00107956  00000+0  13328-2 0  9997,2 44933  53.0430 159.2519 0012399  84.7294  41.9575 15.59262104  5652
STARLINK-1091,44940,53.033,0.000408,15.98806226,275.01418646640377,280.4453737589756,1 44940U 20001AC  25300.83334491  .00442864  93945-4  90796-3 0  9995,2 44940  53.0330 136.3378 0004080 273.3385 278.0904 15.98806226  6048
STARLINK-1094,44941,53.0543,0.000171,15.06401605,546.0224050865636,548.3908726110503,1 44941U 20001AD  25300.44536699  .00023436  00000+0  15869-2 0  9999,2 44941  53.0543 204.7793 0001710  95.0330 265.0854 15.06401605320042
STARLINK-1096,44942,52.988,0.0007764,15.88747409,300.60428664285973,310.9830942189601,1 44942U 20001AE  25300.83334491  .00211468  00000+0  71778-3 0  9995,2 44942  52.9880 324.0038 0007764  34.5274 171.8786 15.88747409  5990
STARLINK-1122,44949,53.0536,0.0001364,15.06407124,546.2451094252156,548.1343385555201,1 44949U 20001AM  25300.73285549  .00008921  00000+0  61691-3 0  9991,2 44949  53.0536 203.4825 0001364  96.9961 263.1183 15.06407124320089
STARLINK-1080,44961,53.0525,0.000134,15.06382082,546.3384705063618,548.194478637547,1 44961U 20001AZ  25300.86370682  .00009875  00000+0  68123-3 0  9998,2 44961  53.0525 182.8993 0001340  87.0761 273.0381 15.06382082320399
STARLINK-1090,44968,53.0526,0.0001333,15.06407982,546.2639486641392,548.1102400676964,1 44968U 20001BG  25300.86738853  .00004086  00000+0  29297-3 0  9991,2 44968  53.0526 182.8832 0001333  94.9107 265.2035 15.06407982320398
STARLINK-1107,44972,53.0081,0.0004526,15.66778143,365.0763229098675,371.18304351151073,1 44972U 20001BL  25300.83334491  .00209864  00000+0  19083-2 0  9995,2 44972  53.0081  99.1551 0004526 240.1208 358.1306 15.66778143  5839
STARLINK-1132,45044,53.0546,0.0001303,15.06402721,546.3008466472575,548.1055903081924,1 45044U 20006A   25300.82684384  .00001543  00000+0  12247-3 0  9999,2 45044  53.0546 143.0642 0001303  88.3963 271.7175 15.06402721316712
STARLINK-1131,45047,53.0541,0.0001673,15.06406928,546.0317174360471,548.3489319588907,1 45047U 20006D   25300.86929571  .00000400  00000+0  45780-4 0  9996,2 45047  53.0541 163.4140 0001673  96.4550 263.6629 15.06406928316437
STARLINK-1134,45048,53.0401,0.0012282,15.26667851,477.3514930892361,494.21202312665173,1 45048U 20006E   25297.87285069  .00016521  00000+0  63194-3 0  9999,2 45048  53.0401 155.6330 0012282 116.8822 243.3433 15.26667851316281
STARLINK-1156,45054,53.052,0.0001363,15.06397964,546.2738721331016,548.1617238510353,1 45054U 20006L   25300.83975750  .00011311  00000+0  77703-3 0  9993,2 45054  53.0520 163.0064 0001363  94.9426 265.1719 15.06397964316430
STARLINK-1159,45057,53.0541,0.0001711,15.20983812,501.69446218165376,504.0491433939669,1 45057U 20006P   25300.83334491  .00032867  00000+0  14722-2 0  9997,2 45057  53.0541 162.6406 0001711  80.7832   8.3224 15.20983812  5726
STARLINK-1166,45060,53.0548,0.0001574,15.06394039,546.1397748663176,548.3198803436471,1 45060U 20006S   25300.86554617  .00000728  00000+0  67766-4 0  9997,2 45060  53.0548 162.8941 0001574  94.1305 265.9864 15.06394039316440
STARLINK-1169,45061,53.053,0.000141,15.06396144,546.246900235099,548.1998518611435,1 45061U 20006T   25300.87291644  .00002710  00000+0  20076-3 0  9992,2 45061  53.0530 162.8603 0001410  95.2309 264.8841 15.06396144316444
STARLINK-1171,45062,53.0534,5.64e-05,15.28828224,478.9272473473702,479.7007678210257,1 45062U 20006U   25300.82779492  .00011715  00000+0  42439-3 0  9992,2 45062  53.0534 161.3395 0000564 100.3666 259.7397 15.28828224316468
STARLINK-1133,45064,53.0543,0.0001379,15.06399932,546.2567607536121,548.1667719433699,1 45064U 20006W   25300.87107770  .00000764  00000+0  70193-4 0  9994,2 45064  53.0543 142.8622 0001379  89.6169 270.4978 15.06399932316728
STARLINK-1167,45071,53.0534,0.0001425,15.06406261,546.2055095064143,548.1792283765626,1 45071U 20006AD  25300.83052323  .00000070  00000+0  23566-4 0  9993,2 45071  53.0534 143.0470 0001425  91.5225 268.5927 15.06406261316712
